<?xml version="1.0" encoding="UTF-8"?>
<gpx version="1.1" creator="pumpfoil sim" xmlns="http://www.topografix.com/GPX/1/1">
<!-- Testfahrt fuer den DevEco-Emulator (GPS emulation -> Replay): 1 Hz, drei Laeufe (17/19/16 km/h) mit Pausen dazwischen, ~10 min -->
<trk><name>Pumpfoil Testfahrt</name><trkseg>
<trkpt lat="47.229000" lon="8.607000"><ele>406</ele><time>2026-10-08T12:00:01Z</time></trkpt>
<trkpt lat="47.229000" lon="8.607000"><ele>406</ele><time>2026-10-08T12:00:02Z</time></trkpt>
<trkpt lat="47.229000" lon="8.607000"><ele>406</ele><time>2026-10-08T12:00:03Z</time></trkpt>
<trkpt lat="47.229000" lon="8.607000"><ele>406</ele><time>2026-10-08T12:00:04Z</time></trkpt>
<trkpt lat="47.229000" lon="8.607000"><ele>406</ele><time>2026-10-08T12:00:05Z</time></trkpt>
<trkpt lat="47.229000" lon="8.607000"><ele>406</ele><time>2026-10-08T12:00:06Z</time></trkpt>
<trkpt lat="47.229000" lon="8.607000"><ele>406</ele><time>2026-10-08T12:00:07Z</time></trkpt>
<trkpt lat="47.229000" lon="8.607000"><ele>406</ele><time>2026-10-08T12:00:08Z</time></trkpt>
<trkpt lat="47.229000" lon="8.607000"><ele>406</ele><time>2026-10-08T12:00:09Z</time></trkpt>
<trkpt lat="47.229000" lon="8.607000"><ele>406</ele><time>2026-10-08T12:00:10Z</time></trkpt>
<trkpt lat="47.229000" lon="8.607000"><ele>406</ele><time>2026-10-08T12:00:11Z</time></trkpt>
<trkpt lat="47.229000" lon="8.607000"><ele>406</ele><time>2026-10-08T12:00:12Z</time></trkpt>
<trkpt lat="47.229000" lon="8.607000"><ele>406</ele><time>2026-10-08T12:00:13Z</time></trkpt>
<trkpt lat="47.229000" lon="8.607000"><ele>406</ele><time>2026-10-08T12:00:14Z</time></trkpt>
<trkpt lat="47.229000" lon="8.607000"><ele>406</ele><time>2026-10-08T12:00:15Z</time></trkpt>
<trkpt lat="47.229000" lon="8.607000"><ele>406</ele><time>2026-10-08T12:00:16Z</time></trkpt>
<trkpt lat="47.229000" lon="8.607000"><ele>406</ele><time>2026-10-08T12:00:17Z</time></trkpt>
<trkpt lat="47.229000" lon="8.607000"><ele>406</ele><time>2026-10-08T12:00:18Z</time></trkpt>
<trkpt lat="47.229000" lon="8.607000"><ele>406</ele><time>2026-10-08T12:00:19Z</time></trkpt>
<trkpt lat="47.229000" lon="8.607000"><ele>406</ele><time>2026-10-08T12:00:20Z</time></trkpt>
<trkpt lat="47.229000" lon="8.607000"><ele>406</ele><time>2026-10-08T12:00:21Z</time></trkpt>
<trkpt lat="47.229000" lon="8.607000"><ele>406</ele><time>2026-10-08T12:00:22Z</time></trkpt>
<trkpt lat="47.229000" lon="8.607000"><ele>406</ele><time>2026-10-08T12:00:23Z</time></trkpt>
<trkpt lat="47.229000" lon="8.607000"><ele>406</ele><time>2026-10-08T12:00:24Z</time></trkpt>
<trkpt lat="47.229000" lon="8.607000"><ele>406</ele><time>2026-10-08T12:00:25Z</time></trkpt>
<trkpt lat="47.229000" lon="8.607000"><ele>406</ele><time>2026-10-08T12:00:26Z</time></trkpt>
<trkpt lat="47.229000" lon="8.607000"><ele>406</ele><time>2026-10-08T12:00:27Z</time></trkpt>
<trkpt lat="47.229000" lon="8.607000"><ele>406</ele><time>2026-10-08T12:00:28Z</time></trkpt>
<trkpt lat="47.229000" lon="8.607000"><ele>406</ele><time>2026-10-08T12:00:29Z</time></trkpt>
<trkpt lat="47.229000" lon="8.607000"><ele>406</ele><time>2026-10-08T12:00:30Z</time></trkpt>
<trkpt lat="47.229010" lon="8.607026"><ele>406</ele><time>2026-10-08T12:00:31Z</time></trkpt>
<trkpt lat="47.229019" lon="8.607052"><ele>406</ele><time>2026-10-08T12:00:32Z</time></trkpt>
<trkpt lat="47.229028" lon="8.607078"><ele>406</ele><time>2026-10-08T12:00:33Z</time></trkpt>
<trkpt lat="47.229036" lon="8.607105"><ele>406</ele><time>2026-10-08T12:00:34Z</time></trkpt>
<trkpt lat="47.229044" lon="8.607132"><ele>406</ele><time>2026-10-08T12:00:35Z</time></trkpt>
<trkpt lat="47.229052" lon="8.607159"><ele>406</ele><time>2026-10-08T12:00:36Z</time></trkpt>
<trkpt lat="47.229059" lon="8.607186"><ele>406</ele><time>2026-10-08T12:00:37Z</time></trkpt>
<trkpt lat="47.229066" lon="8.607214"><ele>406</ele><time>2026-10-08T12:00:38Z</time></trkpt>
<trkpt lat="47.229073" lon="8.607241"><ele>406</ele><time>2026-10-08T12:00:39Z</time></trkpt>
<trkpt lat="47.229079" lon="8.607269"><ele>406</ele><time>2026-10-08T12:00:40Z</time></trkpt>
<trkpt lat="47.229091" lon="8.607329"><ele>406</ele><time>2026-10-08T12:00:41Z</time></trkpt>
<trkpt lat="47.229103" lon="8.607389"><ele>406</ele><time>2026-10-08T12:00:42Z</time></trkpt>
<trkpt lat="47.229113" lon="8.607450"><ele>406</ele><time>2026-10-08T12:00:43Z</time></trkpt>
<trkpt lat="47.229123" lon="8.607511"><ele>406</ele><time>2026-10-08T12:00:44Z</time></trkpt>
<trkpt lat="47.229132" lon="8.607572"><ele>406</ele><time>2026-10-08T12:00:45Z</time></trkpt>
<trkpt lat="47.229140" lon="8.607633"><ele>406</ele><time>2026-10-08T12:00:46Z</time></trkpt>
<trkpt lat="47.229147" lon="8.607695"><ele>406</ele><time>2026-10-08T12:00:47Z</time></trkpt>
<trkpt lat="47.229153" lon="8.607756"><ele>406</ele><time>2026-10-08T12:00:48Z</time></trkpt>
<trkpt lat="47.229158" lon="8.607818"><ele>406</ele><time>2026-10-08T12:00:49Z</time></trkpt>
<trkpt lat="47.229163" lon="8.607881"><ele>406</ele><time>2026-10-08T12:00:50Z</time></trkpt>
<trkpt lat="47.229166" lon="8.607943"><ele>406</ele><time>2026-10-08T12:00:51Z</time></trkpt>
<trkpt lat="47.229169" lon="8.608005"><ele>406</ele><time>2026-10-08T12:00:52Z</time></trkpt>
<trkpt lat="47.229171" lon="8.608068"><ele>406</ele><time>2026-10-08T12:00:53Z</time></trkpt>
<trkpt lat="47.229172" lon="8.608130"><ele>406</ele><time>2026-10-08T12:00:54Z</time></trkpt>
<trkpt lat="47.229172" lon="8.608192"><ele>406</ele><time>2026-10-08T12:00:55Z</time></trkpt>
<trkpt lat="47.229171" lon="8.608255"><ele>406</ele><time>2026-10-08T12:00:56Z</time></trkpt>
<trkpt lat="47.229169" lon="8.608317"><ele>406</ele><time>2026-10-08T12:00:57Z</time></trkpt>
<trkpt lat="47.229166" lon="8.608380"><ele>406</ele><time>2026-10-08T12:00:58Z</time></trkpt>
<trkpt lat="47.229163" lon="8.608442"><ele>406</ele><time>2026-10-08T12:00:59Z</time></trkpt>
<trkpt lat="47.229158" lon="8.608504"><ele>406</ele><time>2026-10-08T12:01:00Z</time></trkpt>
<trkpt lat="47.229153" lon="8.608566"><ele>406</ele><time>2026-10-08T12:01:01Z</time></trkpt>
<trkpt lat="47.229147" lon="8.608628"><ele>406</ele><time>2026-10-08T12:01:02Z</time></trkpt>
<trkpt lat="47.229140" lon="8.608689"><ele>406</ele><time>2026-10-08T12:01:03Z</time></trkpt>
<trkpt lat="47.229132" lon="8.608751"><ele>406</ele><time>2026-10-08T12:01:04Z</time></trkpt>
<trkpt lat="47.229123" lon="8.608812"><ele>406</ele><time>2026-10-08T12:01:05Z</time></trkpt>
<trkpt lat="47.229113" lon="8.608873"><ele>406</ele><time>2026-10-08T12:01:06Z</time></trkpt>
<trkpt lat="47.229103" lon="8.608933"><ele>406</ele><time>2026-10-08T12:01:07Z</time></trkpt>
<trkpt lat="47.229091" lon="8.608993"><ele>406</ele><time>2026-10-08T12:01:08Z</time></trkpt>
<trkpt lat="47.229079" lon="8.609053"><ele>406</ele><time>2026-10-08T12:01:09Z</time></trkpt>
<trkpt lat="47.229066" lon="8.609113"><ele>406</ele><time>2026-10-08T12:01:10Z</time></trkpt>
<trkpt lat="47.229052" lon="8.609172"><ele>406</ele><time>2026-10-08T12:01:11Z</time></trkpt>
<trkpt lat="47.229037" lon="8.609230"><ele>406</ele><time>2026-10-08T12:01:12Z</time></trkpt>
<trkpt lat="47.229022" lon="8.609288"><ele>406</ele><time>2026-10-08T12:01:13Z</time></trkpt>
<trkpt lat="47.229005" lon="8.609346"><ele>406</ele><time>2026-10-08T12:01:14Z</time></trkpt>
<trkpt lat="47.228988" lon="8.609403"><ele>406</ele><time>2026-10-08T12:01:15Z</time></trkpt>
<trkpt lat="47.228970" lon="8.609459"><ele>406</ele><time>2026-10-08T12:01:16Z</time></trkpt>
<trkpt lat="47.228951" lon="8.609515"><ele>406</ele><time>2026-10-08T12:01:17Z</time></trkpt>
<trkpt lat="47.228931" lon="8.609571"><ele>406</ele><time>2026-10-08T12:01:18Z</time></trkpt>
<trkpt lat="47.228911" lon="8.609625"><ele>406</ele><time>2026-10-08T12:01:19Z</time></trkpt>
<trkpt lat="47.228890" lon="8.609680"><ele>406</ele><time>2026-10-08T12:01:20Z</time></trkpt>
<trkpt lat="47.228868" lon="8.609733"><ele>406</ele><time>2026-10-08T12:01:21Z</time></trkpt>
<trkpt lat="47.228845" lon="8.609786"><ele>406</ele><time>2026-10-08T12:01:22Z</time></trkpt>
<trkpt lat="47.228822" lon="8.609838"><ele>406</ele><time>2026-10-08T12:01:23Z</time></trkpt>
<trkpt lat="47.228797" lon="8.609889"><ele>406</ele><time>2026-10-08T12:01:24Z</time></trkpt>
<trkpt lat="47.228772" lon="8.609940"><ele>406</ele><time>2026-10-08T12:01:25Z</time></trkpt>
<trkpt lat="47.228747" lon="8.609989"><ele>406</ele><time>2026-10-08T12:01:26Z</time></trkpt>
<trkpt lat="47.228720" lon="8.610038"><ele>406</ele><time>2026-10-08T12:01:27Z</time></trkpt>
<trkpt lat="47.228693" lon="8.610086"><ele>406</ele><time>2026-10-08T12:01:28Z</time></trkpt>
<trkpt lat="47.228666" lon="8.610134"><ele>406</ele><time>2026-10-08T12:01:29Z</time></trkpt>
<trkpt lat="47.228637" lon="8.610180"><ele>406</ele><time>2026-10-08T12:01:30Z</time></trkpt>
<trkpt lat="47.228608" lon="8.610226"><ele>406</ele><time>2026-10-08T12:01:31Z</time></trkpt>
<trkpt lat="47.228579" lon="8.610270"><ele>406</ele><time>2026-10-08T12:01:32Z</time></trkpt>
<trkpt lat="47.228548" lon="8.610314"><ele>406</ele><time>2026-10-08T12:01:33Z</time></trkpt>
<trkpt lat="47.228517" lon="8.610357"><ele>406</ele><time>2026-10-08T12:01:34Z</time></trkpt>
<trkpt lat="47.228486" lon="8.610399"><ele>406</ele><time>2026-10-08T12:01:35Z</time></trkpt>
<trkpt lat="47.228454" lon="8.610439"><ele>406</ele><time>2026-10-08T12:01:36Z</time></trkpt>
<trkpt lat="47.228421" lon="8.610479"><ele>406</ele><time>2026-10-08T12:01:37Z</time></trkpt>
<trkpt lat="47.228388" lon="8.610518"><ele>406</ele><time>2026-10-08T12:01:38Z</time></trkpt>
<trkpt lat="47.228354" lon="8.610556"><ele>406</ele><time>2026-10-08T12:01:39Z</time></trkpt>
<trkpt lat="47.228320" lon="8.610593"><ele>406</ele><time>2026-10-08T12:01:40Z</time></trkpt>
<trkpt lat="47.228308" lon="8.610605"><ele>406</ele><time>2026-10-08T12:01:41Z</time></trkpt>
<trkpt lat="47.228295" lon="8.610618"><ele>406</ele><time>2026-10-08T12:01:42Z</time></trkpt>
<trkpt lat="47.228283" lon="8.610631"><ele>406</ele><time>2026-10-08T12:01:43Z</time></trkpt>
<trkpt lat="47.228271" lon="8.610644"><ele>406</ele><time>2026-10-08T12:01:44Z</time></trkpt>
<trkpt lat="47.228259" lon="8.610657"><ele>406</ele><time>2026-10-08T12:01:45Z</time></trkpt>
<trkpt lat="47.228247" lon="8.610670"><ele>406</ele><time>2026-10-08T12:01:46Z</time></trkpt>
<trkpt lat="47.228235" lon="8.610683"><ele>406</ele><time>2026-10-08T12:01:47Z</time></trkpt>
<trkpt lat="47.228223" lon="8.610696"><ele>406</ele><time>2026-10-08T12:01:48Z</time></trkpt>
<trkpt lat="47.228211" lon="8.610709"><ele>406</ele><time>2026-10-08T12:01:49Z</time></trkpt>
<trkpt lat="47.228199" lon="8.610722"><ele>406</ele><time>2026-10-08T12:01:50Z</time></trkpt>
<trkpt lat="47.228196" lon="8.610725"><ele>406</ele><time>2026-10-08T12:01:51Z</time></trkpt>
<trkpt lat="47.228192" lon="8.610729"><ele>406</ele><time>2026-10-08T12:01:52Z</time></trkpt>
<trkpt lat="47.228189" lon="8.610732"><ele>406</ele><time>2026-10-08T12:01:53Z</time></trkpt>
<trkpt lat="47.228186" lon="8.610735"><ele>406</ele><time>2026-10-08T12:01:54Z</time></trkpt>
<trkpt lat="47.228183" lon="8.610738"><ele>406</ele><time>2026-10-08T12:01:55Z</time></trkpt>
<trkpt lat="47.228180" lon="8.610742"><ele>406</ele><time>2026-10-08T12:01:56Z</time></trkpt>
<trkpt lat="47.228177" lon="8.610745"><ele>406</ele><time>2026-10-08T12:01:57Z</time></trkpt>
<trkpt lat="47.228174" lon="8.610748"><ele>406</ele><time>2026-10-08T12:01:58Z</time></trkpt>
<trkpt lat="47.228171" lon="8.610751"><ele>406</ele><time>2026-10-08T12:01:59Z</time></trkpt>
<trkpt lat="47.228168" lon="8.610755"><ele>406</ele><time>2026-10-08T12:02:00Z</time></trkpt>
<trkpt lat="47.228165" lon="8.610758"><ele>406</ele><time>2026-10-08T12:02:01Z</time></trkpt>
<trkpt lat="47.228162" lon="8.610761"><ele>406</ele><time>2026-10-08T12:02:02Z</time></trkpt>
<trkpt lat="47.228159" lon="8.610764"><ele>406</ele><time>2026-10-08T12:02:03Z</time></trkpt>
<trkpt lat="47.228156" lon="8.610767"><ele>406</ele><time>2026-10-08T12:02:04Z</time></trkpt>
<trkpt lat="47.228153" lon="8.610771"><ele>406</ele><time>2026-10-08T12:02:05Z</time></trkpt>
<trkpt lat="47.228150" lon="8.610774"><ele>406</ele><time>2026-10-08T12:02:06Z</time></trkpt>
<trkpt lat="47.228147" lon="8.610777"><ele>406</ele><time>2026-10-08T12:02:07Z</time></trkpt>
<trkpt lat="47.228144" lon="8.610780"><ele>406</ele><time>2026-10-08T12:02:08Z</time></trkpt>
<trkpt lat="47.228141" lon="8.610784"><ele>406</ele><time>2026-10-08T12:02:09Z</time></trkpt>
<trkpt lat="47.228138" lon="8.610787"><ele>406</ele><time>2026-10-08T12:02:10Z</time></trkpt>
<trkpt lat="47.228135" lon="8.610790"><ele>406</ele><time>2026-10-08T12:02:11Z</time></trkpt>
<trkpt lat="47.228132" lon="8.610793"><ele>406</ele><time>2026-10-08T12:02:12Z</time></trkpt>
<trkpt lat="47.228129" lon="8.610797"><ele>406</ele><time>2026-10-08T12:02:13Z</time></trkpt>
<trkpt lat="47.228126" lon="8.610800"><ele>406</ele><time>2026-10-08T12:02:14Z</time></trkpt>
<trkpt lat="47.228123" lon="8.610803"><ele>406</ele><time>2026-10-08T12:02:15Z</time></trkpt>
<trkpt lat="47.228120" lon="8.610806"><ele>406</ele><time>2026-10-08T12:02:16Z</time></trkpt>
<trkpt lat="47.228117" lon="8.610810"><ele>406</ele><time>2026-10-08T12:02:17Z</time></trkpt>
<trkpt lat="47.228114" lon="8.610813"><ele>406</ele><time>2026-10-08T12:02:18Z</time></trkpt>
<trkpt lat="47.228111" lon="8.610816"><ele>406</ele><time>2026-10-08T12:02:19Z</time></trkpt>
<trkpt lat="47.228108" lon="8.610819"><ele>406</ele><time>2026-10-08T12:02:20Z</time></trkpt>
<trkpt lat="47.228105" lon="8.610823"><ele>406</ele><time>2026-10-08T12:02:21Z</time></trkpt>
<trkpt lat="47.228102" lon="8.610826"><ele>406</ele><time>2026-10-08T12:02:22Z</time></trkpt>
<trkpt lat="47.228099" lon="8.610829"><ele>406</ele><time>2026-10-08T12:02:23Z</time></trkpt>
<trkpt lat="47.228096" lon="8.610832"><ele>406</ele><time>2026-10-08T12:02:24Z</time></trkpt>
<trkpt lat="47.228093" lon="8.610836"><ele>406</ele><time>2026-10-08T12:02:25Z</time></trkpt>
<trkpt lat="47.228090" lon="8.610839"><ele>406</ele><time>2026-10-08T12:02:26Z</time></trkpt>
<trkpt lat="47.228087" lon="8.610842"><ele>406</ele><time>2026-10-08T12:02:27Z</time></trkpt>
<trkpt lat="47.228083" lon="8.610845"><ele>406</ele><time>2026-10-08T12:02:28Z</time></trkpt>
<trkpt lat="47.228080" lon="8.610848"><ele>406</ele><time>2026-10-08T12:02:29Z</time></trkpt>
<trkpt lat="47.228077" lon="8.610852"><ele>406</ele><time>2026-10-08T12:02:30Z</time></trkpt>
<trkpt lat="47.228059" lon="8.610871"><ele>406</ele><time>2026-10-08T12:02:31Z</time></trkpt>
<trkpt lat="47.228040" lon="8.610889"><ele>406</ele><time>2026-10-08T12:02:32Z</time></trkpt>
<trkpt lat="47.228021" lon="8.610907"><ele>406</ele><time>2026-10-08T12:02:33Z</time></trkpt>
<trkpt lat="47.228002" lon="8.610924"><ele>406</ele><time>2026-10-08T12:02:34Z</time></trkpt>
<trkpt lat="47.227983" lon="8.610940"><ele>406</ele><time>2026-10-08T12:02:35Z</time></trkpt>
<trkpt lat="47.227963" lon="8.610956"><ele>406</ele><time>2026-10-08T12:02:36Z</time></trkpt>
<trkpt lat="47.227943" lon="8.610972"><ele>406</ele><time>2026-10-08T12:02:37Z</time></trkpt>
<trkpt lat="47.227923" lon="8.610986"><ele>406</ele><time>2026-10-08T12:02:38Z</time></trkpt>
<trkpt lat="47.227903" lon="8.611000"><ele>406</ele><time>2026-10-08T12:02:39Z</time></trkpt>
<trkpt lat="47.227882" lon="8.611014"><ele>406</ele><time>2026-10-08T12:02:40Z</time></trkpt>
<trkpt lat="47.227838" lon="8.611041"><ele>406</ele><time>2026-10-08T12:02:41Z</time></trkpt>
<trkpt lat="47.227794" lon="8.611067"><ele>406</ele><time>2026-10-08T12:02:42Z</time></trkpt>
<trkpt lat="47.227750" lon="8.611091"><ele>406</ele><time>2026-10-08T12:02:43Z</time></trkpt>
<trkpt lat="47.227705" lon="8.611114"><ele>406</ele><time>2026-10-08T12:02:44Z</time></trkpt>
<trkpt lat="47.227660" lon="8.611135"><ele>406</ele><time>2026-10-08T12:02:45Z</time></trkpt>
<trkpt lat="47.227615" lon="8.611156"><ele>406</ele><time>2026-10-08T12:02:46Z</time></trkpt>
<trkpt lat="47.227569" lon="8.611174"><ele>406</ele><time>2026-10-08T12:02:47Z</time></trkpt>
<trkpt lat="47.227523" lon="8.611192"><ele>406</ele><time>2026-10-08T12:02:48Z</time></trkpt>
<trkpt lat="47.227477" lon="8.611208"><ele>406</ele><time>2026-10-08T12:02:49Z</time></trkpt>
<trkpt lat="47.227431" lon="8.611222"><ele>406</ele><time>2026-10-08T12:02:50Z</time></trkpt>
<trkpt lat="47.227384" lon="8.611235"><ele>406</ele><time>2026-10-08T12:02:51Z</time></trkpt>
<trkpt lat="47.227337" lon="8.611247"><ele>406</ele><time>2026-10-08T12:02:52Z</time></trkpt>
<trkpt lat="47.227290" lon="8.611257"><ele>406</ele><time>2026-10-08T12:02:53Z</time></trkpt>
<trkpt lat="47.227243" lon="8.611266"><ele>406</ele><time>2026-10-08T12:02:54Z</time></trkpt>
<trkpt lat="47.227196" lon="8.611273"><ele>406</ele><time>2026-10-08T12:02:55Z</time></trkpt>
<trkpt lat="47.227149" lon="8.611279"><ele>406</ele><time>2026-10-08T12:02:56Z</time></trkpt>
<trkpt lat="47.227102" lon="8.611283"><ele>406</ele><time>2026-10-08T12:02:57Z</time></trkpt>
<trkpt lat="47.227054" lon="8.611286"><ele>406</ele><time>2026-10-08T12:02:58Z</time></trkpt>
<trkpt lat="47.227007" lon="8.611288"><ele>406</ele><time>2026-10-08T12:02:59Z</time></trkpt>
<trkpt lat="47.226959" lon="8.611288"><ele>406</ele><time>2026-10-08T12:03:00Z</time></trkpt>
<trkpt lat="47.226912" lon="8.611286"><ele>406</ele><time>2026-10-08T12:03:01Z</time></trkpt>
<trkpt lat="47.226865" lon="8.611283"><ele>406</ele><time>2026-10-08T12:03:02Z</time></trkpt>
<trkpt lat="47.226817" lon="8.611279"><ele>406</ele><time>2026-10-08T12:03:03Z</time></trkpt>
<trkpt lat="47.226770" lon="8.611273"><ele>406</ele><time>2026-10-08T12:03:04Z</time></trkpt>
<trkpt lat="47.226723" lon="8.611266"><ele>406</ele><time>2026-10-08T12:03:05Z</time></trkpt>
<trkpt lat="47.226676" lon="8.611257"><ele>406</ele><time>2026-10-08T12:03:06Z</time></trkpt>
<trkpt lat="47.226629" lon="8.611247"><ele>406</ele><time>2026-10-08T12:03:07Z</time></trkpt>
<trkpt lat="47.226582" lon="8.611235"><ele>406</ele><time>2026-10-08T12:03:08Z</time></trkpt>
<trkpt lat="47.226536" lon="8.611222"><ele>406</ele><time>2026-10-08T12:03:09Z</time></trkpt>
<trkpt lat="47.226489" lon="8.611208"><ele>406</ele><time>2026-10-08T12:03:10Z</time></trkpt>
<trkpt lat="47.226443" lon="8.611192"><ele>406</ele><time>2026-10-08T12:03:11Z</time></trkpt>
<trkpt lat="47.226397" lon="8.611174"><ele>406</ele><time>2026-10-08T12:03:12Z</time></trkpt>
<trkpt lat="47.226352" lon="8.611156"><ele>406</ele><time>2026-10-08T12:03:13Z</time></trkpt>
<trkpt lat="47.226306" lon="8.611135"><ele>406</ele><time>2026-10-08T12:03:14Z</time></trkpt>
<trkpt lat="47.226261" lon="8.611114"><ele>406</ele><time>2026-10-08T12:03:15Z</time></trkpt>
<trkpt lat="47.226216" lon="8.611091"><ele>406</ele><time>2026-10-08T12:03:16Z</time></trkpt>
<trkpt lat="47.226172" lon="8.611067"><ele>406</ele><time>2026-10-08T12:03:17Z</time></trkpt>
<trkpt lat="47.226128" lon="8.611041"><ele>406</ele><time>2026-10-08T12:03:18Z</time></trkpt>
<trkpt lat="47.226084" lon="8.611014"><ele>406</ele><time>2026-10-08T12:03:19Z</time></trkpt>
<trkpt lat="47.226041" lon="8.610985"><ele>406</ele><time>2026-10-08T12:03:20Z</time></trkpt>
<trkpt lat="47.225998" lon="8.610956"><ele>406</ele><time>2026-10-08T12:03:21Z</time></trkpt>
<trkpt lat="47.225955" lon="8.610925"><ele>406</ele><time>2026-10-08T12:03:22Z</time></trkpt>
<trkpt lat="47.225913" lon="8.610892"><ele>406</ele><time>2026-10-08T12:03:23Z</time></trkpt>
<trkpt lat="47.225872" lon="8.610859"><ele>406</ele><time>2026-10-08T12:03:24Z</time></trkpt>
<trkpt lat="47.225831" lon="8.610824"><ele>406</ele><time>2026-10-08T12:03:25Z</time></trkpt>
<trkpt lat="47.225790" lon="8.610788"><ele>406</ele><time>2026-10-08T12:03:26Z</time></trkpt>
<trkpt lat="47.225750" lon="8.610750"><ele>406</ele><time>2026-10-08T12:03:27Z</time></trkpt>
<trkpt lat="47.225711" lon="8.610711"><ele>406</ele><time>2026-10-08T12:03:28Z</time></trkpt>
<trkpt lat="47.225672" lon="8.610672"><ele>406</ele><time>2026-10-08T12:03:29Z</time></trkpt>
<trkpt lat="47.225633" lon="8.610631"><ele>406</ele><time>2026-10-08T12:03:30Z</time></trkpt>
<trkpt lat="47.225596" lon="8.610588"><ele>406</ele><time>2026-10-08T12:03:31Z</time></trkpt>
<trkpt lat="47.225558" lon="8.610545"><ele>406</ele><time>2026-10-08T12:03:32Z</time></trkpt>
<trkpt lat="47.225522" lon="8.610501"><ele>406</ele><time>2026-10-08T12:03:33Z</time></trkpt>
<trkpt lat="47.225486" lon="8.610455"><ele>406</ele><time>2026-10-08T12:03:34Z</time></trkpt>
<trkpt lat="47.225451" lon="8.610408"><ele>406</ele><time>2026-10-08T12:03:35Z</time></trkpt>
<trkpt lat="47.225416" lon="8.610360"><ele>406</ele><time>2026-10-08T12:03:36Z</time></trkpt>
<trkpt lat="47.225382" lon="8.610312"><ele>406</ele><time>2026-10-08T12:03:37Z</time></trkpt>
<trkpt lat="47.225349" lon="8.610262"><ele>406</ele><time>2026-10-08T12:03:38Z</time></trkpt>
<trkpt lat="47.225317" lon="8.610211"><ele>406</ele><time>2026-10-08T12:03:39Z</time></trkpt>
<trkpt lat="47.225285" lon="8.610159"><ele>406</ele><time>2026-10-08T12:03:40Z</time></trkpt>
<trkpt lat="47.225254" lon="8.610106"><ele>406</ele><time>2026-10-08T12:03:41Z</time></trkpt>
<trkpt lat="47.225224" lon="8.610052"><ele>406</ele><time>2026-10-08T12:03:42Z</time></trkpt>
<trkpt lat="47.225194" lon="8.609998"><ele>406</ele><time>2026-10-08T12:03:43Z</time></trkpt>
<trkpt lat="47.225166" lon="8.609942"><ele>406</ele><time>2026-10-08T12:03:44Z</time></trkpt>
<trkpt lat="47.225138" lon="8.609885"><ele>406</ele><time>2026-10-08T12:03:45Z</time></trkpt>
<trkpt lat="47.225111" lon="8.609828"><ele>406</ele><time>2026-10-08T12:03:46Z</time></trkpt>
<trkpt lat="47.225085" lon="8.609770"><ele>406</ele><time>2026-10-08T12:03:47Z</time></trkpt>
<trkpt lat="47.225059" lon="8.609711"><ele>406</ele><time>2026-10-08T12:03:48Z</time></trkpt>
<trkpt lat="47.225035" lon="8.609651"><ele>406</ele><time>2026-10-08T12:03:49Z</time></trkpt>
<trkpt lat="47.225011" lon="8.609591"><ele>406</ele><time>2026-10-08T12:03:50Z</time></trkpt>
<trkpt lat="47.224988" lon="8.609530"><ele>406</ele><time>2026-10-08T12:03:51Z</time></trkpt>
<trkpt lat="47.224966" lon="8.609468"><ele>406</ele><time>2026-10-08T12:03:52Z</time></trkpt>
<trkpt lat="47.224945" lon="8.609405"><ele>406</ele><time>2026-10-08T12:03:53Z</time></trkpt>
<trkpt lat="47.224925" lon="8.609342"><ele>406</ele><time>2026-10-08T12:03:54Z</time></trkpt>
<trkpt lat="47.224906" lon="8.609278"><ele>406</ele><time>2026-10-08T12:03:55Z</time></trkpt>
<trkpt lat="47.224887" lon="8.609214"><ele>406</ele><time>2026-10-08T12:03:56Z</time></trkpt>
<trkpt lat="47.224870" lon="8.609149"><ele>406</ele><time>2026-10-08T12:03:57Z</time></trkpt>
<trkpt lat="47.224853" lon="8.609084"><ele>406</ele><time>2026-10-08T12:03:58Z</time></trkpt>
<trkpt lat="47.224838" lon="8.609018"><ele>406</ele><time>2026-10-08T12:03:59Z</time></trkpt>
<trkpt lat="47.224823" lon="8.608951"><ele>406</ele><time>2026-10-08T12:04:00Z</time></trkpt>
<trkpt lat="47.224809" lon="8.608884"><ele>406</ele><time>2026-10-08T12:04:01Z</time></trkpt>
<trkpt lat="47.224796" lon="8.608817"><ele>406</ele><time>2026-10-08T12:04:02Z</time></trkpt>
<trkpt lat="47.224785" lon="8.608750"><ele>406</ele><time>2026-10-08T12:04:03Z</time></trkpt>
<trkpt lat="47.224774" lon="8.608682"><ele>406</ele><time>2026-10-08T12:04:04Z</time></trkpt>
<trkpt lat="47.224764" lon="8.608613"><ele>406</ele><time>2026-10-08T12:04:05Z</time></trkpt>
<trkpt lat="47.224755" lon="8.608545"><ele>406</ele><time>2026-10-08T12:04:06Z</time></trkpt>
<trkpt lat="47.224747" lon="8.608476"><ele>406</ele><time>2026-10-08T12:04:07Z</time></trkpt>
<trkpt lat="47.224740" lon="8.608407"><ele>406</ele><time>2026-10-08T12:04:08Z</time></trkpt>
<trkpt lat="47.224734" lon="8.608337"><ele>406</ele><time>2026-10-08T12:04:09Z</time></trkpt>
<trkpt lat="47.224729" lon="8.608268"><ele>406</ele><time>2026-10-08T12:04:10Z</time></trkpt>
<trkpt lat="47.224728" lon="8.608250"><ele>406</ele><time>2026-10-08T12:04:11Z</time></trkpt>
<trkpt lat="47.224727" lon="8.608232"><ele>406</ele><time>2026-10-08T12:04:12Z</time></trkpt>
<trkpt lat="47.224725" lon="8.608213"><ele>406</ele><time>2026-10-08T12:04:13Z</time></trkpt>
<trkpt lat="47.224724" lon="8.608195"><ele>406</ele><time>2026-10-08T12:04:14Z</time></trkpt>
<trkpt lat="47.224723" lon="8.608177"><ele>406</ele><time>2026-10-08T12:04:15Z</time></trkpt>
<trkpt lat="47.224722" lon="8.608158"><ele>406</ele><time>2026-10-08T12:04:16Z</time></trkpt>
<trkpt lat="47.224720" lon="8.608140"><ele>406</ele><time>2026-10-08T12:04:17Z</time></trkpt>
<trkpt lat="47.224719" lon="8.608122"><ele>406</ele><time>2026-10-08T12:04:18Z</time></trkpt>
<trkpt lat="47.224718" lon="8.608104"><ele>406</ele><time>2026-10-08T12:04:19Z</time></trkpt>
<trkpt lat="47.224716" lon="8.608085"><ele>406</ele><time>2026-10-08T12:04:20Z</time></trkpt>
<trkpt lat="47.224716" lon="8.608082"><ele>406</ele><time>2026-10-08T12:04:21Z</time></trkpt>
<trkpt lat="47.224716" lon="8.608078"><ele>406</ele><time>2026-10-08T12:04:22Z</time></trkpt>
<trkpt lat="47.224716" lon="8.608074"><ele>406</ele><time>2026-10-08T12:04:23Z</time></trkpt>
<trkpt lat="47.224715" lon="8.608071"><ele>406</ele><time>2026-10-08T12:04:24Z</time></trkpt>
<trkpt lat="47.224715" lon="8.608067"><ele>406</ele><time>2026-10-08T12:04:25Z</time></trkpt>
<trkpt lat="47.224715" lon="8.608063"><ele>406</ele><time>2026-10-08T12:04:26Z</time></trkpt>
<trkpt lat="47.224715" lon="8.608060"><ele>406</ele><time>2026-10-08T12:04:27Z</time></trkpt>
<trkpt lat="47.224714" lon="8.608056"><ele>406</ele><time>2026-10-08T12:04:28Z</time></trkpt>
<trkpt lat="47.224714" lon="8.608052"><ele>406</ele><time>2026-10-08T12:04:29Z</time></trkpt>
<trkpt lat="47.224714" lon="8.608049"><ele>406</ele><time>2026-10-08T12:04:30Z</time></trkpt>
<trkpt lat="47.224713" lon="8.608045"><ele>406</ele><time>2026-10-08T12:04:31Z</time></trkpt>
<trkpt lat="47.224713" lon="8.608041"><ele>406</ele><time>2026-10-08T12:04:32Z</time></trkpt>
<trkpt lat="47.224713" lon="8.608038"><ele>406</ele><time>2026-10-08T12:04:33Z</time></trkpt>
<trkpt lat="47.224713" lon="8.608034"><ele>406</ele><time>2026-10-08T12:04:34Z</time></trkpt>
<trkpt lat="47.224712" lon="8.608031"><ele>406</ele><time>2026-10-08T12:04:35Z</time></trkpt>
<trkpt lat="47.224712" lon="8.608027"><ele>406</ele><time>2026-10-08T12:04:36Z</time></trkpt>
<trkpt lat="47.224712" lon="8.608023"><ele>406</ele><time>2026-10-08T12:04:37Z</time></trkpt>
<trkpt lat="47.224712" lon="8.608020"><ele>406</ele><time>2026-10-08T12:04:38Z</time></trkpt>
<trkpt lat="47.224711" lon="8.608016"><ele>406</ele><time>2026-10-08T12:04:39Z</time></trkpt>
<trkpt lat="47.224711" lon="8.608012"><ele>406</ele><time>2026-10-08T12:04:40Z</time></trkpt>
<trkpt lat="47.224711" lon="8.608009"><ele>406</ele><time>2026-10-08T12:04:41Z</time></trkpt>
<trkpt lat="47.224711" lon="8.608005"><ele>406</ele><time>2026-10-08T12:04:42Z</time></trkpt>
<trkpt lat="47.224710" lon="8.608001"><ele>406</ele><time>2026-10-08T12:04:43Z</time></trkpt>
<trkpt lat="47.224710" lon="8.607998"><ele>406</ele><time>2026-10-08T12:04:44Z</time></trkpt>
<trkpt lat="47.224710" lon="8.607994"><ele>406</ele><time>2026-10-08T12:04:45Z</time></trkpt>
<trkpt lat="47.224710" lon="8.607990"><ele>406</ele><time>2026-10-08T12:04:46Z</time></trkpt>
<trkpt lat="47.224709" lon="8.607987"><ele>406</ele><time>2026-10-08T12:04:47Z</time></trkpt>
<trkpt lat="47.224709" lon="8.607983"><ele>406</ele><time>2026-10-08T12:04:48Z</time></trkpt>
<trkpt lat="47.224709" lon="8.607979"><ele>406</ele><time>2026-10-08T12:04:49Z</time></trkpt>
<trkpt lat="47.224709" lon="8.607976"><ele>406</ele><time>2026-10-08T12:04:50Z</time></trkpt>
<trkpt lat="47.224708" lon="8.607972"><ele>406</ele><time>2026-10-08T12:04:51Z</time></trkpt>
<trkpt lat="47.224708" lon="8.607968"><ele>406</ele><time>2026-10-08T12:04:52Z</time></trkpt>
<trkpt lat="47.224708" lon="8.607965"><ele>406</ele><time>2026-10-08T12:04:53Z</time></trkpt>
<trkpt lat="47.224707" lon="8.607961"><ele>406</ele><time>2026-10-08T12:04:54Z</time></trkpt>
<trkpt lat="47.224707" lon="8.607957"><ele>406</ele><time>2026-10-08T12:04:55Z</time></trkpt>
<trkpt lat="47.224707" lon="8.607954"><ele>406</ele><time>2026-10-08T12:04:56Z</time></trkpt>
<trkpt lat="47.224707" lon="8.607950"><ele>406</ele><time>2026-10-08T12:04:57Z</time></trkpt>
<trkpt lat="47.224706" lon="8.607946"><ele>406</ele><time>2026-10-08T12:04:58Z</time></trkpt>
<trkpt lat="47.224706" lon="8.607943"><ele>406</ele><time>2026-10-08T12:04:59Z</time></trkpt>
<trkpt lat="47.224706" lon="8.607939"><ele>406</ele><time>2026-10-08T12:05:00Z</time></trkpt>
<trkpt lat="47.224706" lon="8.607936"><ele>406</ele><time>2026-10-08T12:05:01Z</time></trkpt>
<trkpt lat="47.224705" lon="8.607932"><ele>406</ele><time>2026-10-08T12:05:02Z</time></trkpt>
<trkpt lat="47.224705" lon="8.607928"><ele>406</ele><time>2026-10-08T12:05:03Z</time></trkpt>
<trkpt lat="47.224705" lon="8.607925"><ele>406</ele><time>2026-10-08T12:05:04Z</time></trkpt>
<trkpt lat="47.224705" lon="8.607921"><ele>406</ele><time>2026-10-08T12:05:05Z</time></trkpt>
<trkpt lat="47.224704" lon="8.607917"><ele>406</ele><time>2026-10-08T12:05:06Z</time></trkpt>
<trkpt lat="47.224704" lon="8.607914"><ele>406</ele><time>2026-10-08T12:05:07Z</time></trkpt>
<trkpt lat="47.224704" lon="8.607910"><ele>406</ele><time>2026-10-08T12:05:08Z</time></trkpt>
<trkpt lat="47.224704" lon="8.607906"><ele>406</ele><time>2026-10-08T12:05:09Z</time></trkpt>
<trkpt lat="47.224703" lon="8.607903"><ele>406</ele><time>2026-10-08T12:05:10Z</time></trkpt>
<trkpt lat="47.224701" lon="8.607870"><ele>406</ele><time>2026-10-08T12:05:11Z</time></trkpt>
<trkpt lat="47.224700" lon="8.607837"><ele>406</ele><time>2026-10-08T12:05:12Z</time></trkpt>
<trkpt lat="47.224699" lon="8.607804"><ele>406</ele><time>2026-10-08T12:05:13Z</time></trkpt>
<trkpt lat="47.224699" lon="8.607771"><ele>406</ele><time>2026-10-08T12:05:14Z</time></trkpt>
<trkpt lat="47.224699" lon="8.607737"><ele>406</ele><time>2026-10-08T12:05:15Z</time></trkpt>
<trkpt lat="47.224699" lon="8.607704"><ele>406</ele><time>2026-10-08T12:05:16Z</time></trkpt>
<trkpt lat="47.224700" lon="8.607671"><ele>406</ele><time>2026-10-08T12:05:17Z</time></trkpt>
<trkpt lat="47.224701" lon="8.607638"><ele>406</ele><time>2026-10-08T12:05:18Z</time></trkpt>
<trkpt lat="47.224703" lon="8.607605"><ele>406</ele><time>2026-10-08T12:05:19Z</time></trkpt>
<trkpt lat="47.224706" lon="8.607573"><ele>406</ele><time>2026-10-08T12:05:20Z</time></trkpt>
<trkpt lat="47.224711" lon="8.607514"><ele>406</ele><time>2026-10-08T12:05:21Z</time></trkpt>
<trkpt lat="47.224716" lon="8.607456"><ele>406</ele><time>2026-10-08T12:05:22Z</time></trkpt>
<trkpt lat="47.224723" lon="8.607398"><ele>406</ele><time>2026-10-08T12:05:23Z</time></trkpt>
<trkpt lat="47.224731" lon="8.607340"><ele>406</ele><time>2026-10-08T12:05:24Z</time></trkpt>
<trkpt lat="47.224739" lon="8.607283"><ele>406</ele><time>2026-10-08T12:05:25Z</time></trkpt>
<trkpt lat="47.224748" lon="8.607226"><ele>406</ele><time>2026-10-08T12:05:26Z</time></trkpt>
<trkpt lat="47.224758" lon="8.607169"><ele>406</ele><time>2026-10-08T12:05:27Z</time></trkpt>
<trkpt lat="47.224769" lon="8.607112"><ele>406</ele><time>2026-10-08T12:05:28Z</time></trkpt>
<trkpt lat="47.224780" lon="8.607056"><ele>406</ele><time>2026-10-08T12:05:29Z</time></trkpt>
<trkpt lat="47.224793" lon="8.607000"><ele>406</ele><time>2026-10-08T12:05:30Z</time></trkpt>
<trkpt lat="47.224806" lon="8.606944"><ele>406</ele><time>2026-10-08T12:05:31Z</time></trkpt>
<trkpt lat="47.224820" lon="8.606889"><ele>406</ele><time>2026-10-08T12:05:32Z</time></trkpt>
<trkpt lat="47.224834" lon="8.606834"><ele>406</ele><time>2026-10-08T12:05:33Z</time></trkpt>
<trkpt lat="47.224850" lon="8.606780"><ele>406</ele><time>2026-10-08T12:05:34Z</time></trkpt>
<trkpt lat="47.224866" lon="8.606727"><ele>406</ele><time>2026-10-08T12:05:35Z</time></trkpt>
<trkpt lat="47.224883" lon="8.606673"><ele>406</ele><time>2026-10-08T12:05:36Z</time></trkpt>
<trkpt lat="47.224901" lon="8.606621"><ele>406</ele><time>2026-10-08T12:05:37Z</time></trkpt>
<trkpt lat="47.224919" lon="8.606569"><ele>406</ele><time>2026-10-08T12:05:38Z</time></trkpt>
<trkpt lat="47.224939" lon="8.606517"><ele>406</ele><time>2026-10-08T12:05:39Z</time></trkpt>
<trkpt lat="47.224958" lon="8.606466"><ele>406</ele><time>2026-10-08T12:05:40Z</time></trkpt>
<trkpt lat="47.224979" lon="8.606416"><ele>406</ele><time>2026-10-08T12:05:41Z</time></trkpt>
<trkpt lat="47.225001" lon="8.606366"><ele>406</ele><time>2026-10-08T12:05:42Z</time></trkpt>
<trkpt lat="47.225023" lon="8.606317"><ele>406</ele><time>2026-10-08T12:05:43Z</time></trkpt>
<trkpt lat="47.225045" lon="8.606269"><ele>406</ele><time>2026-10-08T12:05:44Z</time></trkpt>
<trkpt lat="47.225069" lon="8.606221"><ele>406</ele><time>2026-10-08T12:05:45Z</time></trkpt>
<trkpt lat="47.225093" lon="8.606175"><ele>406</ele><time>2026-10-08T12:05:46Z</time></trkpt>
<trkpt lat="47.225118" lon="8.606129"><ele>406</ele><time>2026-10-08T12:05:47Z</time></trkpt>
<trkpt lat="47.225143" lon="8.606083"><ele>406</ele><time>2026-10-08T12:05:48Z</time></trkpt>
<trkpt lat="47.225169" lon="8.606039"><ele>406</ele><time>2026-10-08T12:05:49Z</time></trkpt>
<trkpt lat="47.225196" lon="8.605995"><ele>406</ele><time>2026-10-08T12:05:50Z</time></trkpt>
<trkpt lat="47.225223" lon="8.605952"><ele>406</ele><time>2026-10-08T12:05:51Z</time></trkpt>
<trkpt lat="47.225251" lon="8.605910"><ele>406</ele><time>2026-10-08T12:05:52Z</time></trkpt>
<trkpt lat="47.225280" lon="8.605869"><ele>406</ele><time>2026-10-08T12:05:53Z</time></trkpt>
<trkpt lat="47.225309" lon="8.605829"><ele>406</ele><time>2026-10-08T12:05:54Z</time></trkpt>
<trkpt lat="47.225339" lon="8.605789"><ele>406</ele><time>2026-10-08T12:05:55Z</time></trkpt>
<trkpt lat="47.225369" lon="8.605751"><ele>406</ele><time>2026-10-08T12:05:56Z</time></trkpt>
<trkpt lat="47.225400" lon="8.605714"><ele>406</ele><time>2026-10-08T12:05:57Z</time></trkpt>
<trkpt lat="47.225431" lon="8.605677"><ele>406</ele><time>2026-10-08T12:05:58Z</time></trkpt>
<trkpt lat="47.225463" lon="8.605641"><ele>406</ele><time>2026-10-08T12:05:59Z</time></trkpt>
<trkpt lat="47.225495" lon="8.605607"><ele>406</ele><time>2026-10-08T12:06:00Z</time></trkpt>
<trkpt lat="47.225528" lon="8.605573"><ele>406</ele><time>2026-10-08T12:06:01Z</time></trkpt>
<trkpt lat="47.225561" lon="8.605541"><ele>406</ele><time>2026-10-08T12:06:02Z</time></trkpt>
<trkpt lat="47.225595" lon="8.605509"><ele>406</ele><time>2026-10-08T12:06:03Z</time></trkpt>
<trkpt lat="47.225629" lon="8.605479"><ele>406</ele><time>2026-10-08T12:06:04Z</time></trkpt>
<trkpt lat="47.225664" lon="8.605449"><ele>406</ele><time>2026-10-08T12:06:05Z</time></trkpt>
<trkpt lat="47.225698" lon="8.605421"><ele>406</ele><time>2026-10-08T12:06:06Z</time></trkpt>
<trkpt lat="47.225734" lon="8.605394"><ele>406</ele><time>2026-10-08T12:06:07Z</time></trkpt>
<trkpt lat="47.225770" lon="8.605368"><ele>406</ele><time>2026-10-08T12:06:08Z</time></trkpt>
<trkpt lat="47.225806" lon="8.605343"><ele>406</ele><time>2026-10-08T12:06:09Z</time></trkpt>
<trkpt lat="47.225842" lon="8.605319"><ele>406</ele><time>2026-10-08T12:06:10Z</time></trkpt>
<trkpt lat="47.225879" lon="8.605296"><ele>406</ele><time>2026-10-08T12:06:11Z</time></trkpt>
<trkpt lat="47.225916" lon="8.605274"><ele>406</ele><time>2026-10-08T12:06:12Z</time></trkpt>
<trkpt lat="47.225954" lon="8.605254"><ele>406</ele><time>2026-10-08T12:06:13Z</time></trkpt>
<trkpt lat="47.225991" lon="8.605235"><ele>406</ele><time>2026-10-08T12:06:14Z</time></trkpt>
<trkpt lat="47.226029" lon="8.605216"><ele>406</ele><time>2026-10-08T12:06:15Z</time></trkpt>
<trkpt lat="47.226067" lon="8.605199"><ele>406</ele><time>2026-10-08T12:06:16Z</time></trkpt>
<trkpt lat="47.226106" lon="8.605184"><ele>406</ele><time>2026-10-08T12:06:17Z</time></trkpt>
<trkpt lat="47.226145" lon="8.605169"><ele>406</ele><time>2026-10-08T12:06:18Z</time></trkpt>
<trkpt lat="47.226183" lon="8.605156"><ele>406</ele><time>2026-10-08T12:06:19Z</time></trkpt>
<trkpt lat="47.226223" lon="8.605143"><ele>406</ele><time>2026-10-08T12:06:20Z</time></trkpt>
<trkpt lat="47.226262" lon="8.605132"><ele>406</ele><time>2026-10-08T12:06:21Z</time></trkpt>
<trkpt lat="47.226301" lon="8.605122"><ele>406</ele><time>2026-10-08T12:06:22Z</time></trkpt>
<trkpt lat="47.226341" lon="8.605114"><ele>406</ele><time>2026-10-08T12:06:23Z</time></trkpt>
<trkpt lat="47.226380" lon="8.605107"><ele>406</ele><time>2026-10-08T12:06:24Z</time></trkpt>
<trkpt lat="47.226420" lon="8.605100"><ele>406</ele><time>2026-10-08T12:06:25Z</time></trkpt>
<trkpt lat="47.226460" lon="8.605095"><ele>406</ele><time>2026-10-08T12:06:26Z</time></trkpt>
<trkpt lat="47.226500" lon="8.605092"><ele>406</ele><time>2026-10-08T12:06:27Z</time></trkpt>
<trkpt lat="47.226539" lon="8.605089"><ele>406</ele><time>2026-10-08T12:06:28Z</time></trkpt>
<trkpt lat="47.226579" lon="8.605088"><ele>406</ele><time>2026-10-08T12:06:29Z</time></trkpt>
<trkpt lat="47.226619" lon="8.605088"><ele>406</ele><time>2026-10-08T12:06:30Z</time></trkpt>
<trkpt lat="47.226659" lon="8.605089"><ele>406</ele><time>2026-10-08T12:06:31Z</time></trkpt>
<trkpt lat="47.226699" lon="8.605092"><ele>406</ele><time>2026-10-08T12:06:32Z</time></trkpt>
<trkpt lat="47.226739" lon="8.605095"><ele>406</ele><time>2026-10-08T12:06:33Z</time></trkpt>
<trkpt lat="47.226779" lon="8.605100"><ele>406</ele><time>2026-10-08T12:06:34Z</time></trkpt>
<trkpt lat="47.226818" lon="8.605107"><ele>406</ele><time>2026-10-08T12:06:35Z</time></trkpt>
<trkpt lat="47.226858" lon="8.605114"><ele>406</ele><time>2026-10-08T12:06:36Z</time></trkpt>
<trkpt lat="47.226898" lon="8.605122"><ele>406</ele><time>2026-10-08T12:06:37Z</time></trkpt>
<trkpt lat="47.226937" lon="8.605132"><ele>406</ele><time>2026-10-08T12:06:38Z</time></trkpt>
<trkpt lat="47.226976" lon="8.605143"><ele>406</ele><time>2026-10-08T12:06:39Z</time></trkpt>
<trkpt lat="47.227015" lon="8.605156"><ele>406</ele><time>2026-10-08T12:06:40Z</time></trkpt>
<trkpt lat="47.227054" lon="8.605169"><ele>406</ele><time>2026-10-08T12:06:41Z</time></trkpt>
<trkpt lat="47.227093" lon="8.605184"><ele>406</ele><time>2026-10-08T12:06:42Z</time></trkpt>
<trkpt lat="47.227131" lon="8.605199"><ele>406</ele><time>2026-10-08T12:06:43Z</time></trkpt>
<trkpt lat="47.227169" lon="8.605216"><ele>406</ele><time>2026-10-08T12:06:44Z</time></trkpt>
<trkpt lat="47.227207" lon="8.605235"><ele>406</ele><time>2026-10-08T12:06:45Z</time></trkpt>
<trkpt lat="47.227245" lon="8.605254"><ele>406</ele><time>2026-10-08T12:06:46Z</time></trkpt>
<trkpt lat="47.227282" lon="8.605274"><ele>406</ele><time>2026-10-08T12:06:47Z</time></trkpt>
<trkpt lat="47.227320" lon="8.605296"><ele>406</ele><time>2026-10-08T12:06:48Z</time></trkpt>
<trkpt lat="47.227356" lon="8.605319"><ele>406</ele><time>2026-10-08T12:06:49Z</time></trkpt>
<trkpt lat="47.227393" lon="8.605343"><ele>406</ele><time>2026-10-08T12:06:50Z</time></trkpt>
<trkpt lat="47.227429" lon="8.605368"><ele>406</ele><time>2026-10-08T12:06:51Z</time></trkpt>
<trkpt lat="47.227465" lon="8.605394"><ele>406</ele><time>2026-10-08T12:06:52Z</time></trkpt>
<trkpt lat="47.227500" lon="8.605421"><ele>406</ele><time>2026-10-08T12:06:53Z</time></trkpt>
<trkpt lat="47.227535" lon="8.605449"><ele>406</ele><time>2026-10-08T12:06:54Z</time></trkpt>
<trkpt lat="47.227570" lon="8.605479"><ele>406</ele><time>2026-10-08T12:06:55Z</time></trkpt>
<trkpt lat="47.227604" lon="8.605509"><ele>406</ele><time>2026-10-08T12:06:56Z</time></trkpt>
<trkpt lat="47.227638" lon="8.605541"><ele>406</ele><time>2026-10-08T12:06:57Z</time></trkpt>
<trkpt lat="47.227671" lon="8.605573"><ele>406</ele><time>2026-10-08T12:06:58Z</time></trkpt>
<trkpt lat="47.227704" lon="8.605607"><ele>406</ele><time>2026-10-08T12:06:59Z</time></trkpt>
<trkpt lat="47.227736" lon="8.605641"><ele>406</ele><time>2026-10-08T12:07:00Z</time></trkpt>
<trkpt lat="47.227768" lon="8.605677"><ele>406</ele><time>2026-10-08T12:07:01Z</time></trkpt>
<trkpt lat="47.227799" lon="8.605714"><ele>406</ele><time>2026-10-08T12:07:02Z</time></trkpt>
<trkpt lat="47.227830" lon="8.605751"><ele>406</ele><time>2026-10-08T12:07:03Z</time></trkpt>
<trkpt lat="47.227860" lon="8.605789"><ele>406</ele><time>2026-10-08T12:07:04Z</time></trkpt>
<trkpt lat="47.227890" lon="8.605829"><ele>406</ele><time>2026-10-08T12:07:05Z</time></trkpt>
<trkpt lat="47.227919" lon="8.605869"><ele>406</ele><time>2026-10-08T12:07:06Z</time></trkpt>
<trkpt lat="47.227947" lon="8.605910"><ele>406</ele><time>2026-10-08T12:07:07Z</time></trkpt>
<trkpt lat="47.227975" lon="8.605952"><ele>406</ele><time>2026-10-08T12:07:08Z</time></trkpt>
<trkpt lat="47.228003" lon="8.605995"><ele>406</ele><time>2026-10-08T12:07:09Z</time></trkpt>
<trkpt lat="47.228029" lon="8.606039"><ele>406</ele><time>2026-10-08T12:07:10Z</time></trkpt>
<trkpt lat="47.228055" lon="8.606083"><ele>406</ele><time>2026-10-08T12:07:11Z</time></trkpt>
<trkpt lat="47.228081" lon="8.606129"><ele>406</ele><time>2026-10-08T12:07:12Z</time></trkpt>
<trkpt lat="47.228106" lon="8.606175"><ele>406</ele><time>2026-10-08T12:07:13Z</time></trkpt>
<trkpt lat="47.228130" lon="8.606221"><ele>406</ele><time>2026-10-08T12:07:14Z</time></trkpt>
<trkpt lat="47.228153" lon="8.606269"><ele>406</ele><time>2026-10-08T12:07:15Z</time></trkpt>
<trkpt lat="47.228176" lon="8.606317"><ele>406</ele><time>2026-10-08T12:07:16Z</time></trkpt>
<trkpt lat="47.228198" lon="8.606366"><ele>406</ele><time>2026-10-08T12:07:17Z</time></trkpt>
<trkpt lat="47.228219" lon="8.606416"><ele>406</ele><time>2026-10-08T12:07:18Z</time></trkpt>
<trkpt lat="47.228240" lon="8.606466"><ele>406</ele><time>2026-10-08T12:07:19Z</time></trkpt>
<trkpt lat="47.228260" lon="8.606517"><ele>406</ele><time>2026-10-08T12:07:20Z</time></trkpt>
<trkpt lat="47.228279" lon="8.606569"><ele>406</ele><time>2026-10-08T12:07:21Z</time></trkpt>
<trkpt lat="47.228298" lon="8.606621"><ele>406</ele><time>2026-10-08T12:07:22Z</time></trkpt>
<trkpt lat="47.228316" lon="8.606673"><ele>406</ele><time>2026-10-08T12:07:23Z</time></trkpt>
<trkpt lat="47.228333" lon="8.606727"><ele>406</ele><time>2026-10-08T12:07:24Z</time></trkpt>
<trkpt lat="47.228349" lon="8.606780"><ele>406</ele><time>2026-10-08T12:07:25Z</time></trkpt>
<trkpt lat="47.228364" lon="8.606834"><ele>406</ele><time>2026-10-08T12:07:26Z</time></trkpt>
<trkpt lat="47.228379" lon="8.606889"><ele>406</ele><time>2026-10-08T12:07:27Z</time></trkpt>
<trkpt lat="47.228393" lon="8.606944"><ele>406</ele><time>2026-10-08T12:07:28Z</time></trkpt>
<trkpt lat="47.228406" lon="8.607000"><ele>406</ele><time>2026-10-08T12:07:29Z</time></trkpt>
<trkpt lat="47.228418" lon="8.607056"><ele>406</ele><time>2026-10-08T12:07:30Z</time></trkpt>
<trkpt lat="47.228430" lon="8.607112"><ele>406</ele><time>2026-10-08T12:07:31Z</time></trkpt>
<trkpt lat="47.228441" lon="8.607169"><ele>406</ele><time>2026-10-08T12:07:32Z</time></trkpt>
<trkpt lat="47.228451" lon="8.607226"><ele>406</ele><time>2026-10-08T12:07:33Z</time></trkpt>
<trkpt lat="47.228460" lon="8.607283"><ele>406</ele><time>2026-10-08T12:07:34Z</time></trkpt>
<trkpt lat="47.228468" lon="8.607340"><ele>406</ele><time>2026-10-08T12:07:35Z</time></trkpt>
<trkpt lat="47.228476" lon="8.607398"><ele>406</ele><time>2026-10-08T12:07:36Z</time></trkpt>
<trkpt lat="47.228482" lon="8.607456"><ele>406</ele><time>2026-10-08T12:07:37Z</time></trkpt>
<trkpt lat="47.228488" lon="8.607514"><ele>406</ele><time>2026-10-08T12:07:38Z</time></trkpt>
<trkpt lat="47.228493" lon="8.607573"><ele>406</ele><time>2026-10-08T12:07:39Z</time></trkpt>
<trkpt lat="47.228497" lon="8.607631"><ele>406</ele><time>2026-10-08T12:07:40Z</time></trkpt>
<trkpt lat="47.228501" lon="8.607690"><ele>406</ele><time>2026-10-08T12:07:41Z</time></trkpt>
<trkpt lat="47.228503" lon="8.607748"><ele>406</ele><time>2026-10-08T12:07:42Z</time></trkpt>
<trkpt lat="47.228505" lon="8.607807"><ele>406</ele><time>2026-10-08T12:07:43Z</time></trkpt>
<trkpt lat="47.228506" lon="8.607866"><ele>406</ele><time>2026-10-08T12:07:44Z</time></trkpt>
<trkpt lat="47.228506" lon="8.607925"><ele>406</ele><time>2026-10-08T12:07:45Z</time></trkpt>
<trkpt lat="47.228505" lon="8.607983"><ele>406</ele><time>2026-10-08T12:07:46Z</time></trkpt>
<trkpt lat="47.228503" lon="8.608042"><ele>406</ele><time>2026-10-08T12:07:47Z</time></trkpt>
<trkpt lat="47.228501" lon="8.608101"><ele>406</ele><time>2026-10-08T12:07:48Z</time></trkpt>
<trkpt lat="47.228497" lon="8.608159"><ele>406</ele><time>2026-10-08T12:07:49Z</time></trkpt>
<trkpt lat="47.228493" lon="8.608218"><ele>406</ele><time>2026-10-08T12:07:50Z</time></trkpt>
<trkpt lat="47.228488" lon="8.608276"><ele>406</ele><time>2026-10-08T12:07:51Z</time></trkpt>
<trkpt lat="47.228482" lon="8.608334"><ele>406</ele><time>2026-10-08T12:07:52Z</time></trkpt>
<trkpt lat="47.228476" lon="8.608392"><ele>406</ele><time>2026-10-08T12:07:53Z</time></trkpt>
<trkpt lat="47.228468" lon="8.608450"><ele>406</ele><time>2026-10-08T12:07:54Z</time></trkpt>
<trkpt lat="47.228460" lon="8.608508"><ele>406</ele><time>2026-10-08T12:07:55Z</time></trkpt>
<trkpt lat="47.228451" lon="8.608565"><ele>406</ele><time>2026-10-08T12:07:56Z</time></trkpt>
<trkpt lat="47.228441" lon="8.608622"><ele>406</ele><time>2026-10-08T12:07:57Z</time></trkpt>
<trkpt lat="47.228430" lon="8.608678"><ele>406</ele><time>2026-10-08T12:07:58Z</time></trkpt>
<trkpt lat="47.228418" lon="8.608735"><ele>406</ele><time>2026-10-08T12:07:59Z</time></trkpt>
<trkpt lat="47.228406" lon="8.608791"><ele>406</ele><time>2026-10-08T12:08:00Z</time></trkpt>
<trkpt lat="47.228393" lon="8.608846"><ele>406</ele><time>2026-10-08T12:08:01Z</time></trkpt>
<trkpt lat="47.228379" lon="8.608901"><ele>406</ele><time>2026-10-08T12:08:02Z</time></trkpt>
<trkpt lat="47.228364" lon="8.608956"><ele>406</ele><time>2026-10-08T12:08:03Z</time></trkpt>
<trkpt lat="47.228349" lon="8.609010"><ele>406</ele><time>2026-10-08T12:08:04Z</time></trkpt>
<trkpt lat="47.228333" lon="8.609064"><ele>406</ele><time>2026-10-08T12:08:05Z</time></trkpt>
<trkpt lat="47.228316" lon="8.609117"><ele>406</ele><time>2026-10-08T12:08:06Z</time></trkpt>
<trkpt lat="47.228298" lon="8.609170"><ele>406</ele><time>2026-10-08T12:08:07Z</time></trkpt>
<trkpt lat="47.228279" lon="8.609222"><ele>406</ele><time>2026-10-08T12:08:08Z</time></trkpt>
<trkpt lat="47.228260" lon="8.609273"><ele>406</ele><time>2026-10-08T12:08:09Z</time></trkpt>
<trkpt lat="47.228240" lon="8.609324"><ele>406</ele><time>2026-10-08T12:08:10Z</time></trkpt>
<trkpt lat="47.228219" lon="8.609374"><ele>406</ele><time>2026-10-08T12:08:11Z</time></trkpt>
<trkpt lat="47.228198" lon="8.609424"><ele>406</ele><time>2026-10-08T12:08:12Z</time></trkpt>
<trkpt lat="47.228176" lon="8.609473"><ele>406</ele><time>2026-10-08T12:08:13Z</time></trkpt>
<trkpt lat="47.228153" lon="8.609521"><ele>406</ele><time>2026-10-08T12:08:14Z</time></trkpt>
<trkpt lat="47.228130" lon="8.609569"><ele>406</ele><time>2026-10-08T12:08:15Z</time></trkpt>
<trkpt lat="47.228106" lon="8.609616"><ele>406</ele><time>2026-10-08T12:08:16Z</time></trkpt>
<trkpt lat="47.228081" lon="8.609662"><ele>406</ele><time>2026-10-08T12:08:17Z</time></trkpt>
<trkpt lat="47.228055" lon="8.609707"><ele>406</ele><time>2026-10-08T12:08:18Z</time></trkpt>
<trkpt lat="47.228029" lon="8.609752"><ele>406</ele><time>2026-10-08T12:08:19Z</time></trkpt>
<trkpt lat="47.228003" lon="8.609795"><ele>406</ele><time>2026-10-08T12:08:20Z</time></trkpt>
<trkpt lat="47.227999" lon="8.609801"><ele>406</ele><time>2026-10-08T12:08:21Z</time></trkpt>
<trkpt lat="47.227996" lon="8.609806"><ele>406</ele><time>2026-10-08T12:08:22Z</time></trkpt>
<trkpt lat="47.227993" lon="8.609812"><ele>406</ele><time>2026-10-08T12:08:23Z</time></trkpt>
<trkpt lat="47.227989" lon="8.609817"><ele>406</ele><time>2026-10-08T12:08:24Z</time></trkpt>
<trkpt lat="47.227986" lon="8.609823"><ele>406</ele><time>2026-10-08T12:08:25Z</time></trkpt>
<trkpt lat="47.227983" lon="8.609828"><ele>406</ele><time>2026-10-08T12:08:26Z</time></trkpt>
<trkpt lat="47.227979" lon="8.609834"><ele>406</ele><time>2026-10-08T12:08:27Z</time></trkpt>
<trkpt lat="47.227976" lon="8.609839"><ele>406</ele><time>2026-10-08T12:08:28Z</time></trkpt>
<trkpt lat="47.227973" lon="8.609844"><ele>406</ele><time>2026-10-08T12:08:29Z</time></trkpt>
<trkpt lat="47.227969" lon="8.609850"><ele>406</ele><time>2026-10-08T12:08:30Z</time></trkpt>
<trkpt lat="47.227966" lon="8.609855"><ele>406</ele><time>2026-10-08T12:08:31Z</time></trkpt>
<trkpt lat="47.227962" lon="8.609861"><ele>406</ele><time>2026-10-08T12:08:32Z</time></trkpt>
<trkpt lat="47.227959" lon="8.609866"><ele>406</ele><time>2026-10-08T12:08:33Z</time></trkpt>
<trkpt lat="47.227956" lon="8.609872"><ele>406</ele><time>2026-10-08T12:08:34Z</time></trkpt>
<trkpt lat="47.227952" lon="8.609877"><ele>406</ele><time>2026-10-08T12:08:35Z</time></trkpt>
<trkpt lat="47.227949" lon="8.609883"><ele>406</ele><time>2026-10-08T12:08:36Z</time></trkpt>
<trkpt lat="47.227946" lon="8.609888"><ele>406</ele><time>2026-10-08T12:08:37Z</time></trkpt>
<trkpt lat="47.227942" lon="8.609894"><ele>406</ele><time>2026-10-08T12:08:38Z</time></trkpt>
<trkpt lat="47.227939" lon="8.609899"><ele>406</ele><time>2026-10-08T12:08:39Z</time></trkpt>
<trkpt lat="47.227936" lon="8.609905"><ele>406</ele><time>2026-10-08T12:08:40Z</time></trkpt>
<trkpt lat="47.227932" lon="8.609910"><ele>406</ele><time>2026-10-08T12:08:41Z</time></trkpt>
<trkpt lat="47.227929" lon="8.609915"><ele>406</ele><time>2026-10-08T12:08:42Z</time></trkpt>
<trkpt lat="47.227926" lon="8.609921"><ele>406</ele><time>2026-10-08T12:08:43Z</time></trkpt>
<trkpt lat="47.227922" lon="8.609926"><ele>406</ele><time>2026-10-08T12:08:44Z</time></trkpt>
<trkpt lat="47.227919" lon="8.609932"><ele>406</ele><time>2026-10-08T12:08:45Z</time></trkpt>
<trkpt lat="47.227916" lon="8.609937"><ele>406</ele><time>2026-10-08T12:08:46Z</time></trkpt>
<trkpt lat="47.227912" lon="8.609943"><ele>406</ele><time>2026-10-08T12:08:47Z</time></trkpt>
<trkpt lat="47.227909" lon="8.609948"><ele>406</ele><time>2026-10-08T12:08:48Z</time></trkpt>
<trkpt lat="47.227906" lon="8.609954"><ele>406</ele><time>2026-10-08T12:08:49Z</time></trkpt>
<trkpt lat="47.227902" lon="8.609959"><ele>406</ele><time>2026-10-08T12:08:50Z</time></trkpt>
</trkseg></trk>
</gpx>
